name,source,collection_date,satellite_number,classification,launch_year,launch_number,launch_piece,epoch_year,epoch_day,inclination_deg,right_ascension_deg,eccentricity,argument_of_perigee_deg,mean_anomaly_deg,mean_motion,orbital_period_minutes,approximate_altitude_km,mean_motion_derivative,mean_motion_second_derivative,drag_term,element_set_number,revolution_number,line1,line2,category
STARLINK-5113,celestrak_active,2025-07-29T17:08:40.680192,53988,U,2022,125,AA,2025,210.21379901,53.2173,137.4582,0.0001474,93.29,266.826,15.08838666,95.43763905636814,0,-2.1e-06,0.0,4.9239e-05,999,15571,1 53988U 22125AA  25210.21379901 -.00000210  00000+0  49239-5 0  9992,2 53988  53.2173 137.4582 0001474  93.2900 266.8260 15.08838666155715,important
STARLINK-5118,celestrak_active,2025-07-29T17:08:40.680198,53991,U,2022,125,AD,2025,210.46493633,53.2172,126.1495,0.0001241,69.3301,290.7824,15.08839825,95.43756574691419,0,1.15e-06,0.0,0.00025285000000000005,999,15589,1 53991U 22125AD  25210.46493633  .00000115  00000+0  25285-4 0  9999,2 53991  53.2172 126.1495 0001241  69.3301 290.7824 15.08839825155896,important
STARLINK-5108,celestrak_active,2025-07-29T17:08:40.680204,53992,U,2022,125,AE,2025,210.53394585,53.2164,135.9042,0.0001364,95.7954,264.3194,15.08846621,95.43713588632545,0,9.7e-07,0.0,0.00024184000000000003,999,15584,1 53992U 22125AE  25210.53394585  .00000097  00000+0  24184-4 0  9990,2 53992  53.2164 135.9042 0001364  95.7954 264.3194 15.08846621155841,important
STARLINK-5121,celestrak_active,2025-07-29T17:08:40.680210,53993,U,2022,125,AF,2025,210.51044988,53.2173,130.7676,0.0001426,86.5983,273.5172,15.08846334,95.437154039571,0,2.85e-06,0.0,0.00035985000000000005,999,15583,1 53993U 22125AF  25210.51044988  .00000285  00000+0  35985-4 0  9998,2 53993  53.2173 130.7676 0001426  86.5983 273.5172 15.08846334155835,important
STARLINK-5125,celestrak_active,2025-07-29T17:08:40.680216,53994,U,2022,125,AG,2025,210.52289017,53.2171,135.8379,0.0001422,84.8817,275.2338,15.08842882,95.43737238507249,0,-1.19e-06,0.0,0.00010587,999,15577,1 53994U 22125AG  25210.52289017 -.00000119  00000+0  10587-4 0  9992,2 53994  53.2171 135.8379 0001422  84.8817 275.2338 15.08842882155773,important
STARLINK-5097,celestrak_active,2025-07-29T17:08:40.680221,53995,U,2022,125,AH,2025,210.53025622,53.2176,135.8861,0.0001415,86.982,273.1334,15.08844512,95.43726928437806,0,-1.79e-06,0.0,6.873000000000001e-05,999,15576,1 53995U 22125AH  25210.53025622 -.00000179  00000+0  68730-5 0  9994,2 53995  53.2176 135.8861 0001415  86.9820 273.1334 15.08844512155768,important
STARLINK-5131,celestrak_active,2025-07-29T17:08:40.680227,53996,U,2022,125,AJ,2025,210.51920589,53.2165,135.8115,0.0001446,95.2973,264.8184,15.0884314,95.43735606605203,0,1.73e-06,0.0,0.00028954,999,15577,1 53996U 22125AJ  25210.51920589  .00000173  00000+0  28954-4 0  9995,2 53996  53.2165 135.8115 0001446  95.2973 264.8184 15.08843140155772,important
STARLINK-5130,celestrak_active,2025-07-29T17:08:40.680232,53997,U,2022,125,AK,2025,210.48704922,53.2177,126.342,0.000165,86.887,273.2311,15.088451,95.43723209228038,0,9.79e-06,0.0,0.00079562,999,15590,1 53997U 22125AK  25210.48704922  .00000979  00000+0  79562-4 0  9998,2 53997  53.2177 126.3420 0001650  86.8870 273.2311 15.08845100155908,important
STARLINK-5128,celestrak_active,2025-07-29T17:08:40.680237,53998,U,2022,125,AL,2025,210.51183915,53.2165,135.7654,0.000137,86.1058,274.009,15.08840644,95.43751394332138,0,-9.5e-07,0.0,0.00012091,999,15577,1 53998U 22125AL  25210.51183915 -.00000095  00000+0  12091-4 0  9990,2 53998  53.2165 135.7654 0001370  86.1058 274.0090 15.08840644155775,important
STARLINK-5079,celestrak_active,2025-07-29T17:08:40.680243,53999,U,2022,125,AM,2025,210.19538113,53.2172,137.3466,0.0001502,86.8821,273.2343,15.08840403,95.4375291871078,0,2.72e-06,0.0,0.00035185,999,15579,1 53999U 22125AM  25210.19538113  .00000272  00000+0  35185-4 0  9994,2 53999  53.2172 137.3466 0001502  86.8821 273.2343 15.08840403155792,important
STARLINK-5088,celestrak_active,2025-07-29T17:08:40.680250,54000,U,2022,125,AN,2025,210.48336764,53.2164,126.3189,0.0001239,89.1958,270.9176,15.08839036,95.43761565299269,0,2.14e-06,0.0,0.00031548,999,15590,1 54000U 22125AN  25210.48336764  .00000214  00000+0  31548-4 0  9993,2 54000  53.2164 126.3189 0001239  89.1958 270.9176 15.08839036155902,important
STARLINK-5109,celestrak_active,2025-07-29T17:08:40.680256,54002,U,2022,125,AQ,2025,210.5053905,53.2169,125.7731,0.0001444,92.5828,267.5329,15.08843496,95.43733354834303,0,1.8e-07,0.0,0.00019191000000000002,999,15591,1 54002U 22125AQ  25210.50539050  .00000018  00000+0  19191-4 0  9993,2 54002  53.2169 125.7731 0001444  92.5828 267.5329 15.08843496155915,important
STARLINK-5114,celestrak_active,2025-07-29T17:08:40.680262,54003,U,2022,125,AR,2025,210.18432001,53.2168,137.273,0.000138,93.0626,267.0524,15.08844925,95.43724316135405,0,5.12e-06,0.0,0.0005025800000000001,999,15572,1 54003U 22125AR  25210.18432001  .00000512  00000+0  50258-4 0  9994,2 54003  53.2168 137.2730 0001380  93.0626 267.0524 15.08844925155722,important
STARLINK-5129,celestrak_active,2025-07-29T17:08:40.680267,54004,U,2022,125,AS,2025,210.50446684,53.217,135.7185,0.0001296,90.6514,269.4626,15.0884188,95.43743576364676,0,5.7e-07,0.0,0.00021693,999,15577,1 54004U 22125AS  25210.50446684  .00000057  00000+0  21693-4 0  9998,2 54004  53.2170 135.7185 0001296  90.6514 269.4626 15.08841880155779,important
STARLINK-5135,celestrak_active,2025-07-29T17:08:40.680272,54005,U,2022,125,AT,2025,210.50814666,53.2169,135.7406,0.0001307,85.7889,274.3252,15.08849366,95.43696226068468,0,-8.99e-06,0.0,-0.00038384000000000004,999,15577,1 54005U 22125AT  25210.50814666 -.00000899  00000+0 -38384-4 0  9999,2 54005  53.2169 135.7406 0001307  85.7889 274.3252 15.08849366155774,important
STARLINK-5096,celestrak_active,2025-07-29T17:08:40.680279,54006,U,2022,125,AU,2025,210.49341416,53.2173,135.661,0.00015,88.4103,271.7061,15.08839776,95.43756884627624,0,-3.89e-06,0.0,-6.3341e-05,999,15576,1 54006U 22125AU  25210.49341416 -.00000389  00000+0 -63341-5 0  9992,2 54006  53.2173 135.6610 0001500  88.4103 271.7061 15.08839776155762,important
STARLINK-5132,celestrak_active,2025-07-29T17:08:40.680285,54007,U,2022,125,AV,2025,210.50079235,53.2179,135.6984,0.0001226,89.6374,270.4759,15.08827961,95.43831617791712,0,-2.046e-05,0.0,-0.0011053,999,15577,1 54007U 22125AV  25210.50079235 -.00002046  00000+0 -11053-3 0  9995,2 54007  53.2179 135.6984 0001226  89.6374 270.4759 15.08827961155775,important
STARLINK-5145,celestrak_active,2025-07-29T17:08:40.680290,54008,U,2022,125,AW,2025,210.49802074,53.2168,125.7107,0.0001311,88.4913,271.623,15.08843808,95.43731381373041,0,-2.03e-06,0.0,5.3246000000000005e-05,999,15591,1 54008U 22125AW  25210.49802074 -.00000203  00000+0  53246-5 0  9993,2 54008  53.2168 125.7107 0001311  88.4913 271.6230 15.08843808155913,important
STARLINK-5099,celestrak_active,2025-07-29T17:08:40.680296,54009,U,2022,125,AX,2025,210.49709692,53.2163,135.6752,0.0001279,84.6417,275.4721,15.08837903,95.43768731795969,0,1.14e-06,0.0,0.00025273,999,15577,1 54009U 22125AX  25210.49709692  .00000114  00000+0  25273-4 0  9994,2 54009  53.2163 135.6752 0001279  84.6417 275.4721 15.08837903155775,important
STARLINK-5127,celestrak_active,2025-07-29T17:08:40.680302,54010,U,2022,125,AY,2025,210.49065508,53.2171,125.6736,0.0001437,90.7068,269.4089,15.08838821,95.43762925225,0,1.9e-06,0.0,0.00030025,999,15591,1 54010U 22125AY  25210.49065508  .00000190  00000+0  30025-4 0  9992,2 54010  53.2171 125.6736 0001437  90.7068 269.4089 15.08838821155919,important
STARLINK-5124,celestrak_active,2025-07-29T17:08:40.680307,54011,U,2022,125,AZ,2025,210.47968346,53.2171,126.2979,0.0001409,85.7279,274.3874,15.08839211,95.43760458383262,0,4.09e-06,0.0,0.00043809,999,15590,1 54011U 22125AZ  25210.47968346  .00000409  00000+0  43809-4 0  9990,2 54011  53.2171 126.2979 0001409  85.7279 274.3874 15.08839211155903,important
STARLINK-5126,celestrak_active,2025-07-29T17:08:40.680313,54012,U,2022,125,BA,2025,210.05644881,53.2167,127.9252,0.0001498,94.7937,265.3226,15.08840542,95.43752039504781,0,2.67e-06,0.0,0.0003484,999,15584,1 54012U 22125BA  25210.05644881  .00000267  00000+0  34840-4 0  9997,2 54012  53.2167 127.9252 0001498  94.7937 265.3226 15.08840542155843,important
STARLINK-5098,celestrak_active,2025-07-29T17:08:40.680318,54013,U,2022,125,BB,2025,210.46126043,53.2169,126.1872,0.0001423,85.9432,274.1723,15.08837687,95.4377009804899,0,3.72e-06,0.0,0.00041485000000000003,999,15590,1 54013U 22125BB  25210.46126043  .00000372  00000+0  41485-4 0  9998,2 54013  53.2169 126.1872 0001423  85.9432 274.1723 15.08837687155908,important
STARLINK-5055,celestrak_active,2025-07-29T17:08:40.680324,54015,U,2022,125,BD,2025,210.4575735,53.2184,126.1622,0.0001585,96.6218,263.4955,15.0884215,95.43741868557953,0,-4.1e-07,0.0,0.00015549,999,15590,1 54015U 22125BD  25210.45757350 -.00000041  00000+0  15549-4 0  9996,2 54015  53.2184 126.1622 0001585  96.6218 263.4955 15.08842150155909,important
STARLINK-5195,celestrak_active,2025-07-29T17:08:40.680401,54051,U,2022,136,A,2025,210.41531196,53.2174,266.6864,8.04e-05,82.8841,277.2242,15.0882428,95.43854901380564,0,-1.298e-05,0.0,-0.00063529,999,15313,1 54051U 22136A   25210.41531196 -.00001298  00000+0 -63529-4 0  9999,2 54051  53.2174 266.6864 0000804  82.8841 277.2242 15.08824280153137,important
STARLINK-5189,celestrak_active,2025-07-29T17:08:40.680406,54052,U,2022,136,B,2025,210.36740718,53.2162,226.4676,0.0001224,84.6907,275.4225,15.08835743,95.43782394343769,0,-3.9e-06,0.0,-6.4155e-05,999,15369,1 54052U 22136B   25210.36740718 -.00000390  00000+0 -64155-5 0  9995,2 54052  53.2162 226.4676 0001224  84.6907 275.4225 15.08835743153698,important
